COMMENT,ORIGINATOR,NORAD_CAT_ID,OBJECT_NAME,OBJECT_TYPE,CLASSIFICATION_TYPE,INTLDES,EPOCH,EPOCH_MICROSECONDS,MEAN_MOTION,ECCENTRICITY,INCLINATION,RA_OF_ASC_NODE,ARG_OF_PERICENTER,MEAN_ANOMALY,EPHEMERIS_TYPE,ELEMENT_SET_NO,REV_AT_EPOCH,BSTAR,MEAN_MOTION_DOT,MEAN_MOTION_DDOT,FILE,TLE_LINE0,TLE_LINE1,TLE_LINE2,OBJECT_ID,OBJECT_NUMBER,SEMIMAJOR_AXIS,PERIOD,APOGEE,PERIGEE,DECAYED
"GENERATED VIA SPACETRACK.ORG API","18 SPCS","49167","STARLINK-3054","PAYLOAD","U","21082AP","2023-11-06 08:04:38","240544","14.9832064","0.0002663","70","288.5737","259.5758","100.5101","0","999","11920","0.00014727","0.00001664","0","4074285","0 STARLINK-3054","1 49167U 21082AP  23310.33655371  .00001664  00000-0  14727-3 0  9993","2 49167  70.0000 288.5737 0002663 259.5758 100.5101 14.98320640119202","2021-082AP","49167","6950.222","96.108","573.938","570.236","0"
"GENERATED VIA SPACETRACK.ORG API","18 SPCS","55917","STARLINK-5855","PAYLOAD","U","23037D","2023-11-06 08:45:07","297056","15.01905659","0.0003511","70","297.8632","300.046","60.0352","0","999","3553","0.0024585","0.00032256","0","4074285","0 STARLINK-5855","1 55917U 23037D   23310.36466779  .00032256  00000-0  24585-2 0  9993","2 55917  70.0000 297.8632 0003511 300.0460  60.0352 15.01905659 35539","2023-037D","55917","6939.157","95.878","563.459","558.586","0"
"GENERATED VIA SPACETRACK.ORG API","18 SPCS","49133","STARLINK-3077","PAYLOAD","U","21082D","2023-11-06 09:28:43","969440","14.9834977","0.0002654","70","288.4339","261.4723","98.6136","0","999","11801","0.00037409","0.00004376","0","4074285","0 STARLINK-3077","1 49133U 21082D   23310.39495335  .00004376  00000-0  37409-3 0  9999","2 49133  70.0000 288.4339 0002654 261.4723  98.6136 14.98349770118014","2021-082D","49133","6950.132","96.106","573.841","570.152","0"
"GENERATED VIA SPACETRACK.ORG API","18 SPCS","56781","STARLINK-5989","PAYLOAD","U","23078Q","2023-11-06 11:08:42","604800","14.983509","0.0002429","70","338.3349","264.7262","95.3619","0","999","2498","-0.000044504","-0.00000624","0","4073583","0 STARLINK-5989","1 56781U 23078Q   23310.46438200 -.00000624  00000-0 -44504-4 0  9998","2 56781  70.0000 338.3349 0002429 264.7262  95.3619 14.98350900 24980","2023-078Q","56781","6950.128","96.106","573.681","570.305","0"
"GENERATED VIA SPACETRACK.ORG API","18 SPCS","56781","STARLINK-5989","PAYLOAD","U","23078Q","2023-11-06 11:08:42","604800","14.983509","0.0002429","70","338.3349","264.7262","95.3619","0","999","2472","-0.000044504","-0.00000624","0","4074285","0 STARLINK-5989","1 56781U 23078Q   23310.46438200 -.00000624  00000-0 -44504-4 0  9998","2 56781  70.0000 338.3349 0002429 264.7262  95.3619 14.98350900 24722","2023-078Q","56781","6950.128","96.106","573.681","570.305","0"
"GENERATED VIA SPACETRACK.ORG API","18 SPCS","55753","STARLINK-5617","PAYLOAD","U","23028N","2023-11-06 12:25:08","143968","14.98345545","0.0002869","70","238.1163","263.1889","96.8944","0","999","3809","-0.000059618","-0.00000805","0","4074285","0 STARLINK-5617","1 55753U 23028N   23310.51745537 -.00000805  00000-0 -59618-4 0  9994","2 55753  70.0000 238.1163 0002869 263.1889  96.8944 14.98345545 38098","2023-028N","55753","6950.145","96.106","574.004","570.016","0"
"GENERATED VIA SPACETRACK.ORG API","18 SPCS","55753","STARLINK-5617","PAYLOAD","U","23028N","2023-11-06 12:25:08","143968","14.98345545","0.0002869","70","238.1163","263.1889","96.8944","0","999","3809","-0.000059618","-0.00000805","0","4074384","0 STARLINK-5617","1 55753U 23028N   23310.51745537 -.00000805  00000-0 -59618-4 0  9994","2 55753  70.0000 238.1163 0002869 263.1889  96.8944 14.98345545 38098","2023-028N","55753","6950.145","96.106","574.004","570.016","0"
"GENERATED VIA SPACETRACK.ORG API","18 SPCS","55744","STARLINK-5601","PAYLOAD","U","23028D","2023-11-06 13:01:27","672960","14.98332483","0.000241","70","238.2045","284.2912","75.7979","0","999","3809","0.000071956","0.00000766","0","4074285","0 STARLINK-5601","1 55744U 23028D   23310.54268140  .00000766  00000-0  71956-4 0  9990","2 55744  70.0000 238.2045 0002410 284.2912  75.7979 14.98332483 38092","2023-028D","55744","6950.185","96.107","573.725","570.375","0"
"GENERATED VIA SPACETRACK.ORG API","18 SPCS","49140","STARLINK-3118","PAYLOAD","U","21082L","2023-11-06 13:04:22","747008","14.98351989","0.0002455","70","248.0513","274.6132","85.4747","0","999","11902","-0.00032365","-0.00003955","0","4074285","0 STARLINK-3118","1 49140U 21082L   23310.54470772 -.00003955  00000-0 -32365-3 0  9992","2 49140  70.0000 248.0513 0002455 274.6132  85.4747 14.98351989119026","2021-082L","49140","6950.125","96.106","573.696","570.284","0"
"GENERATED VIA SPACETRACK.ORG API","18 SPCS","56767","STARLINK-6197","PAYLOAD","U","23078A","2023-11-06 13:09:12","613824","14.98337924","0.0002857","70","358.1063","269.044","91.0392","0","999","2424","0.00011839","0.0000132","0","4074285","0 STARLINK-6197","1 56767U 23078A   23310.54806266  .00001320  00000-0  11839-3 0  9998","2 56767  70.0000 358.1063 0002857 269.0440  91.0392 14.98337924 24249","2023-078A","56767","6950.168","96.106","574.019","570.048","0"
"GENERATED VIA SPACETRACK.ORG API","18 SPCS","55289","STARLINK-5320","PAYLOAD","U","23010W","2023-11-06 14:33:39","301632","14.98346054","0.0002808","70","17.9943","264.4014","95.6825","0","999","4533","0.0001769","0.00002019","0","4074285","0 STARLINK-5320","1 55289U 23010W   23310.60670488  .00002019  00000-0  17690-3 0  9991","2 55289  70.0000  17.9943 0002808 264.4014  95.6825 14.98346054 45334","2023-010W","55289","6950.143","96.106","573.960","570.057","0"
"GENERATED VIA SPACETRACK.ORG API","18 SPCS","55418","STARLINK-5030","PAYLOAD","U","23014AD","2023-11-06 18:34:58","875456","14.98344329","0.000303","70","77.4945","266.0606","94.0206","0","999","4271","0.00018499","0.00002116","0","4074362","0 STARLINK-5030","1 55418U 23014AD  23310.77429254  .00002116  00000-0  18499-3 0  9996","2 55418  70.0000  77.4945 0003030 266.0606  94.0206 14.98344329 42712","2023-014AD","55418","6950.149","96.106","574.119","569.908","0"
"GENERATED VIA SPACETRACK.ORG API","18 SPCS","55418","STARLINK-5030","PAYLOAD","U","23014AD","2023-11-06 18:34:58","875456","14.98344329","0.000303","70","77.4945","266.0606","94.0206","0","999","4365","0.00018499","0.00002116","0","4074934","0 STARLINK-5030","1 55418U 23014AD  23310.77429254  .00002116  00000-0  18499-3 0  9996","2 55418  70.0000  77.4945 0003030 266.0606  94.0206 14.98344329 43656","2023-014AD","55418","6950.149","96.106","574.119","569.908","0"
"GENERATED VIA SPACETRACK.ORG API","18 SPCS","55427","STARLINK-5073","PAYLOAD","U","23014AN","2023-11-06 18:47:00","257568","14.9834558","0.0003079","70","77.5243","269.6536","90.4271","0","999","4271","0.00010574","0.00001169","0","4074342","0 STARLINK-5073","1 55427U 23014AN  23310.78264187  .00001169  00000-0  10574-3 0  9992","2 55427  70.0000  77.5243 0003079 269.6536  90.4271 14.98345580 42710","2023-014AN","55427","6950.145","96.106","574.150","569.870","0"
"GENERATED VIA SPACETRACK.ORG API","18 SPCS","55427","STARLINK-5073","PAYLOAD","U","23014AN","2023-11-06 18:47:00","257568","14.9834558","0.0003079","70","77.5243","269.6536","90.4271","0","999","4365","0.00010574","0.00001169","0","4074934","0 STARLINK-5073","1 55427U 23014AN  23310.78264187  .00001169  00000-0  10574-3 0  9992","2 55427  70.0000  77.5243 0003079 269.6536  90.4271 14.98345580 43654","2023-014AN","55427","6950.145","96.106","574.150","569.870","0"
"GENERATED VIA SPACETRACK.ORG API","18 SPCS","55430","STARLINK-5642","PAYLOAD","U","23014AR","2023-11-06 18:47:18","548448","14.98410864","0.000241","70","97.3843","246.3304","113.7603","0","999","4222","-0.0011211","-0.00013472","0","4074371","0 STARLINK-5642","1 55430U 23014AR  23310.78285357 -.00013472  00000-0 -11211-2 0  9998","2 55430  70.0000  97.3843 0002410 246.3304 113.7603 14.98410864 42225","2023-014AR","55430","6949.943","96.102","573.483","570.133","0"
"GENERATED VIA SPACETRACK.ORG API","18 SPCS","56800","STARLINK-6036","PAYLOAD","U","23078AK","2023-11-06 19:03:23","40288","14.98354195","0.0002525","70","337.4769","274.0167","86.0703","0","999","2503","-0.0005593","-0.00006764","0","4074309","0 STARLINK-6036","1 56800U 23078AK  23310.79401667 -.00006764  00000-0 -55930-3 0  9998","2 56800  70.0000 337.4769 0002525 274.0167  86.0703 14.98354195 25031","2023-078AK","56800","6950.118","96.105","573.738","570.228","0"
"GENERATED VIA SPACETRACK.ORG API","18 SPCS","56800","STARLINK-6036","PAYLOAD","U","23078AK","2023-11-06 19:03:23","40288","14.98354195","0.0002525","70","337.4769","274.0167","86.0703","0","999","2477","-0.0005593","-0.00006764","0","4074934","0 STARLINK-6036","1 56800U 23078AK  23310.79401667 -.00006764  00000-0 -55930-3 0  9998","2 56800  70.0000 337.4769 0002525 274.0167  86.0703 14.98354195 24771","2023-078AK","56800","6950.118","96.105","573.738","570.228","0"
"GENERATED VIA SPACETRACK.ORG API","18 SPCS","55674","STARLINK-5462","PAYLOAD","U","23021AY","2023-11-06 19:12:23","283936","14.9832528","0.0002745","70","157.2756","272.331","87.7534","0","999","4108","0.000020303","0.00000149","0","4074742","0 STARLINK-5462","1 55674U 23021AY  23310.80026949  .00000149  00000-0  20303-4 0  9998","2 55674  70.0000 157.2756 0002745 272.3310  87.7534 14.98325280 41084","2023-021AY","55674","6950.207","96.107","573.980","570.165","0"
"GENERATED VIA SPACETRACK.ORG API","18 SPCS","55743","STARLINK-5602","PAYLOAD","U","23028C","2023-11-06 19:31:48","822528","14.9829252","0.000293","70","237.5468","273.6973","86.3851","0","999","3813","-0.00036529","-0.00004445","0","4074319","0 STARLINK-5602","1 55743U 23028C   23310.81375952 -.00004445  00000-0 -36529-3 0  9995","2 55743  70.0000 237.5468 0002930 273.6973  86.3851 14.98292520 38137","2023-028C","55743","6950.309","96.109","574.210","570.137","0"
